start=new Date('2023-06-15T00:00:00.000Z').valueOf();
sats=[{"EPHEMERIS_TYPE":"0","REF_FRAME":"TEME","LAUNCH_DATE":"2020-04-22","OBJECT_TYPE":"PAYLOAD","INCLINATION":"53.0528","ELEMENT_SET_NO":"999","CLASSIFICATION_TYPE":"U","PERIAPSIS":"546.449","OBJECT_NAME":"STARLINK-1369","TIME_SYSTEM":"UTC","SITE":"AFETR","RA_OF_ASC_NODE":"272.4936","CENTER_NAME":"EARTH","GP_ID":"233911339","OBJECT_ID":"2020-025L","DECAY_DATE":null,"PERIOD":"95.593","TLE_LINE1":"1 45541U 20025L   23165.42469678 -.00004254  00000-0 -26689-3 0  9992","ECCENTRICITY":"0.00011380","BSTAR":"-0.00026689000000","MEAN_ELEMENT_THEORY":"SGP4","TLE_LINE2":"2 45541  53.0528 272.4936 0001138  85.1116 275.0003 15.06392340174475","SEMIMAJOR_AXIS":"6925.372","MEAN_MOTION_DOT":"-0.00004254","MEAN_MOTION_DDOT":"0.0000000000000","MEAN_ANOMALY":"275.0003","FILE":"3932965","APOAPSIS":"548.025","MEAN_MOTION":"15.06392340","COUNTRY_CODE":"US","EPOCH":"2023-06-14T10:11:33.801792","ARG_OF_PERICENTER":"85.1116","REV_AT_EPOCH":"17447","RCS_SIZE":"LARGE","NORAD_CAT_ID":"45541"},{"OBJECT_NAME":"STARLINK-1371","TIME_SYSTEM":"UTC","PERIAPSIS":"546.667","SITE":"AFETR","RA_OF_ASC_NODE":"272.9374","REF_FRAME":"TEME","EPHEMERIS_TYPE":"0","CLASSIFICATION_TYPE":"U","ELEMENT_SET_NO":"999","INCLINATION":"53.0542","LAUNCH_DATE":"2020-04-22","OBJECT_TYPE":"PAYLOAD","DECAY_DATE":null,"CENTER_NAME":"EARTH","OBJECT_ID":"2020-025M","GP_ID":"233910590","TLE_LINE1":"1 45542U 20025M   23165.32517959 -.00007002  00000-0 -45178-3 0  9996","PERIOD":"95.593","MEAN_ANOMALY":"284.0788","MEAN_MOTION_DDOT":"0.0000000000000","ECCENTRICITY":"0.00008300","BSTAR":"-0.00045178000000","SEMIMAJOR_AXIS":"6925.376","MEAN_MOTION_DOT":"-0.00007002","MEAN_ELEMENT_THEORY":"SGP4","TLE_LINE2":"2 45542  53.0542 272.9374 0000830  76.0293 284.0788 15.06390939174467","RCS_SIZE":"LARGE","NORAD_CAT_ID":"45542","REV_AT_EPOCH":"17446","COUNTRY_CODE":"US","APOAPSIS":"547.816","FILE":"3932965","MEAN_MOTION":"15.06390939","EPOCH":"2023-06-14T07:48:15.516576","ARG_OF_PERICENTER":"76.0293"},{"PERIOD":"95.592","TLE_LINE1":"1 45543U 20025N   23165.69377232  .00005093  00000-0  36060-3 0  9991","GP_ID":"233943968","OBJECT_ID":"2020-025N","CENTER_NAME":"EARTH","DECAY_DATE":null,"INCLINATION":"53.0540","LAUNCH_DATE":"2020-04-22","OBJECT_TYPE":"PAYLOAD","CLASSIFICATION_TYPE":"U","ELEMENT_SET_NO":"999","EPHEMERIS_TYPE":"0","REF_FRAME":"TEME","RA_OF_ASC_NODE":"271.2854","SITE":"AFETR","PERIAPSIS":"546.490","TIME_SYSTEM":"UTC","OBJECT_NAME":"STARLINK-1372","ARG_OF_PERICENTER":"89.6267","EPOCH":"2023-06-14T16:39:01.928448","MEAN_MOTION":"15.06394513","FILE":"3933215","APOAPSIS":"547.971","COUNTRY_CODE":"US","REV_AT_EPOCH":"17361","NORAD_CAT_ID":"45543","RCS_SIZE":"LARGE","TLE_LINE2":"2 45543  53.0540 271.2854 0001069  89.6267 270.4845 15.06394513173618","MEAN_ELEMENT_THEORY":"SGP4","MEAN_MOTION_DOT":"0.00005093","SEMIMAJOR_AXIS":"6925.365","BSTAR":"0.00036060000000","ECCENTRICITY":"0.00010690","MEAN_MOTION_DDOT":"0.0000000000000","MEAN_ANOMALY":"270.4845"},{"PERIOD":"95.592","TLE_LINE1":"1 45544U 20025P   23165.44680694  .00015497  00000-0  10569-2 0  9998","CENTER_NAME":"EARTH","GP_ID":"233919682","OBJECT_ID":"2020-025P","DECAY_DATE":null,"OBJECT_TYPE":"PAYLOAD","LAUNCH_DATE":"2020-04-22","INCLINATION":"53.0536","CLASSIFICATION_TYPE":"U","ELEMENT_SET_NO":"999","EPHEMERIS_TYPE":"0","REF_FRAME":"TEME","SITE":"AFETR","RA_OF_ASC_NODE":"272.3912","PERIAPSIS":"546.418","OBJECT_NAME":"STARLINK-1373","TIME_SYSTEM":"UTC","EPOCH":"2023-06-14T10:43:24.119616","ARG_OF_PERICENTER":"198.5886","FILE":"3933019","APOAPSIS":"547.997","MEAN_MOTION":"15.06402082","COUNTRY_CODE":"US","REV_AT_EPOCH":"17388","RCS_SIZE":"LARGE","NORAD_CAT_ID":"45544","MEAN_ELEMENT_THEORY":"SGP4","TLE_LINE2":"2 45544  53.0536 272.3912 0001140 198.5886 161.5061 15.06402082173888","SEMIMAJOR_AXIS":"6925.342","MEAN_MOTION_DOT":"0.00015497","ECCENTRICITY":"0.00011400","BSTAR":"0.00105690000000","MEAN_MOTION_DDOT":"0.0000000000000","MEAN_ANOMALY":"161.5061"},{"PERIOD":"95.593","TLE_LINE1":"1 45545U 20025Q   23165.73066572  .00012297  00000-0  84319-3 0  9994","GP_ID":"233942466","OBJECT_ID":"2020-025Q","CENTER_NAME":"EARTH","DECAY_DATE":null,"SITE":"AFETR","RA_OF_ASC_NODE":"271.1173","PERIAPSIS":"546.286","TIME_SYSTEM":"UTC","OBJECT_NAME":"STARLINK-1374","OBJECT_TYPE":"PAYLOAD","LAUNCH_DATE":"2020-04-22","INCLINATION":"53.0545","CLASSIFICATION_TYPE":"U","ELEMENT_SET_NO":"999","EPHEMERIS_TYPE":"0","REF_FRAME":"TEME","REV_AT_EPOCH":"17450","NORAD_CAT_ID":"45545","RCS_SIZE":"LARGE","ARG_OF_PERICENTER":"62.3913","EPOCH":"2023-06-14T17:32:09.518208","MEAN_MOTION":"15.06390829","APOAPSIS":"548.197","FILE":"3933215","COUNTRY_CODE":"US","MEAN_MOTION_DDOT":"0.0000000000000","MEAN_ANOMALY":"297.7216","TLE_LINE2":"2 45545  53.0545 271.1173 0001380  62.3913 297.7216 15.06390829174509","MEAN_ELEMENT_THEORY":"SGP4","MEAN_MOTION_DOT":"0.00012297","SEMIMAJOR_AXIS":"6925.377","BSTAR":"0.00084319000000","ECCENTRICITY":"0.00013800"},{"TLE_LINE1":"1 45546U 20025R   23165.67534472  .00001722  00000-0  13453-3 0  9999","PERIOD":"95.593","DECAY_DATE":null,"OBJECT_ID":"2020-025R","GP_ID":"233943217","CENTER_NAME":"EARTH","RA_OF_ASC_NODE":"271.3690","SITE":"AFETR","TIME_SYSTEM":"UTC","OBJECT_NAME":"STARLINK-1375","PERIAPSIS":"546.562","CLASSIFICATION_TYPE":"U","ELEMENT_SET_NO":"999","INCLINATION":"53.0538","LAUNCH_DATE":"2020-04-22","OBJECT_TYPE":"PAYLOAD","REF_FRAME":"TEME","EPHEMERIS_TYPE":"0","NORAD_CAT_ID":"45546","RCS_SIZE":"LARGE","REV_AT_EPOCH":"17451","ARG_OF_PERICENTER":"84.5337","EPOCH":"2023-06-14T16:12:29.783808","COUNTRY_CODE":"US","MEAN_MOTION":"15.06388656","APOAPSIS":"547.935","FILE":"3933215","MEAN_ANOMALY":"275.5765","MEAN_MOTION_DDOT":"0.0000000000000","MEAN_MOTION_DOT":"0.00001722","SEMIMAJOR_AXIS":"6925.383","TLE_LINE2":"2 45546  53.0538 271.3690 0000991  84.5337 275.5765 15.06388656174510","MEAN_ELEMENT_THEORY":"SGP4","BSTAR":"0.00013453000000","ECCENTRICITY":"0.00009910"},{"CENTER_NAME":"EARTH","GP_ID":"233943468","OBJECT_ID":"2020-025S","DECAY_DATE":null,"PERIOD":"95.593","TLE_LINE1":"1 45547U 20025S   23165.73800776  .00005584  00000-0  39351-3 0  9995","EPHEMERIS_TYPE":"0","REF_FRAME":"TEME","LAUNCH_DATE":"2020-04-22","INCLINATION":"53.0529","OBJECT_TYPE":"PAYLOAD","ELEMENT_SET_NO":"999","CLASSIFICATION_TYPE":"U","PERIAPSIS":"546.400","OBJECT_NAME":"STARLINK-1377","TIME_SYSTEM":"UTC","RA_OF_ASC_NODE":"271.0854","SITE":"AFETR","FILE":"3933215","APOAPSIS":"548.065","MEAN_MOTION":"15.06393863","COUNTRY_CODE":"US","EPOCH":"2023-06-14T17:42:43.870464","ARG_OF_PERICENTER":"86.0222","REV_AT_EPOCH":"17453","NORAD_CAT_ID":"45547","RCS_SIZE":"LARGE","ECCENTRICITY":"0.00012020","BSTAR":"0.00039351000000","MEAN_ELEMENT_THEORY":"SGP4","TLE_LINE2":"2 45547  53.0529 271.0854 0001202  86.0222 274.0904 15.06393863174533","SEMIMAJOR_AXIS":"6925.367","MEAN_MOTION_DOT":"0.00005584","MEAN_MOTION_DDOT":"0.0000000000000","MEAN_ANOMALY":"274.0904"},{"MEAN_MOTION":"15.06391680","APOAPSIS":"547.673","FILE":"3932965","COUNTRY_CODE":"US","ARG_OF_PERICENTER":"105.4996","EPOCH":"2023-06-14T10:22:10.660512","REV_AT_EPOCH":"17447","NORAD_CAT_ID":"45548","RCS_SIZE":"LARGE","BSTAR":"0.00093412000000","ECCENTRICITY":"0.00006260","TLE_LINE2":"2 45548  53.0529 272.4624 0000626 105.4996 254.6062 15.06391680174474","MEAN_ELEMENT_THEORY":"SGP4","MEAN_MOTION_DOT":"0.00013656","SEMIMAJOR_AXIS":"6925.374","MEAN_MOTION_DDOT":"0.0000000000000","MEAN_ANOMALY":"254.6062","GP_ID":"233911592","OBJECT_ID":"2020-025T","CENTER_NAME":"EARTH","DECAY_DATE":null,"PERIOD":"95.593","TLE_LINE1":"1 45548U 20025T   23165.43206783  .00013656  00000-0  93412-3 0  9998","EPHEMERIS_TYPE":"0","REF_FRAME":"TEME","OBJECT_TYPE":"PAYLOAD","LAUNCH_DATE":"2020-04-22","INCLINATION":"53.0529","CLASSIFICATION_TYPE":"U","ELEMENT_SET_NO":"999","PERIAPSIS":"546.806","TIME_SYSTEM":"UTC","OBJECT_NAME":"STARLINK-1378","SITE":"AFETR","RA_OF_ASC_NODE":"272.4624"},{"PERIOD":"95.592","TLE_LINE1":"1 45550U 20025V   23165.29102539  .00001403  00000-0  11303-3 0  9995","OBJECT_ID":"2020-025V","GP_ID":"233911340","CENTER_NAME":"EARTH","DECAY_DATE":null,"SITE":"AFETR","RA_OF_ASC_NODE":"272.8316","PERIAPSIS":"546.013","TIME_SYSTEM":"UTC","OBJECT_NAME":"STARLINK-1390","INCLINATION":"53.0537","LAUNCH_DATE":"2020-04-22","OBJECT_TYPE":"PAYLOAD","CLASSIFICATION_TYPE":"U","ELEMENT_SET_NO":"999","EPHEMERIS_TYPE":"0","REF_FRAME":"TEME","REV_AT_EPOCH":"17445","NORAD_CAT_ID":"45550","RCS_SIZE":"LARGE","ARG_OF_PERICENTER":"78.1348","EPOCH":"2023-06-14T06:59:04.593696","MEAN_MOTION":"15.06404795","FILE":"3932965","APOAPSIS":"548.384","COUNTRY_CODE":"US","MEAN_MOTION_DDOT":"0.0000000000000","MEAN_ANOMALY":"281.9833","TLE_LINE2":"2 45550  53.0537 272.8316 0001712  78.1348 281.9833 15.06404795174451","MEAN_ELEMENT_THEORY":"SGP4","MEAN_MOTION_DOT":"0.00001403","SEMIMAJOR_AXIS":"6925.334","BSTAR":"0.00011303000000","ECCENTRICITY":"0.00017120"},{"DECAY_DATE":null,"CENTER_NAME":"EARTH","GP_ID":"233910591","OBJECT_ID":"2020-025W","TLE_LINE1":"1 45551U 20025W   23165.38598636  .00001080  00000-0  91386-4 0  9994","PERIOD":"95.592","REF_FRAME":"TEME","EPHEMERIS_TYPE":"0","ELEMENT_SET_NO":"999","CLASSIFICATION_TYPE":"U","OBJECT_TYPE":"PAYLOAD","LAUNCH_DATE":"2020-04-22","INCLINATION":"53.0543","OBJECT_NAME":"STARLINK-1294","TIME_SYSTEM":"UTC","PERIAPSIS":"545.864","SITE":"AFETR","RA_OF_ASC_NODE":"252.6644","COUNTRY_CODE":"US","FILE":"3932965","APOAPSIS":"548.514","MEAN_MOTION":"15.06408100","EPOCH":"2023-06-14T09:15:49.221504","ARG_OF_PERICENTER":"194.0460","RCS_SIZE":"LARGE","NORAD_CAT_ID":"45551","REV_AT_EPOCH":"17475","ECCENTRICITY":"0.00019130","BSTAR":"0.00009138600000","SEMIMAJOR_AXIS":"6925.324","MEAN_MOTION_DOT":"0.00001080","MEAN_ELEMENT_THEORY":"SGP4","TLE_LINE2":"2 45551  53.0543 252.6644 0001913 194.0460 166.0476 15.06408100174758","MEAN_ANOMALY":"166.0476","MEAN_MOTION_DDOT":"0.0000000000000"}];
